{
  "type": "FeatureCollection",
  "features": [
    {
      "type": "Feature",
      "properties": {
        "norad_id": 44334,
        "name": "EUTELSAT 7C",
        "group": "eutelsat",
        "lat": 0.03310141673161319,
        "lon": -12.02471597123749,
        "alt_km": 35791.9630316733,
        "timestamp": "2025-12-04T17:48:39.844582+00:00",
        "meta_object_name": "EUTELSAT 7C",
        "meta_object_id": "2019-034B",
        "meta_epoch": "2025-12-04T05:11:56.717952",
        "meta_mean_motion": 1.00269705,
        "meta_eccentricity": 0.00034396,
        "meta_inclination": 0.0758,
        "meta_ra_of_asc_node": 179.6886,
        "meta_arg_of_pericenter": 56.5984,
        "meta_mean_anomaly": 281.9777,
        "meta_ephemeris_type": 0,
        "meta_classification_type": "U",
        "meta_norad_cat_id": 44334,
        "meta_element_set_no": 999,
        "meta_rev_at_epoch": 488,
        "meta_bstar": 0,
        "meta_mean_motion_dot": 6.4e-07,
        "meta_mean_motion_ddot": 0,
        "tle_line1": "1 44334U 19034B   25338.21662868  .00000064  00000+0  00000+0 0  9993",
        "tle_line2": "2 44334   0.0758 179.6886 0003439  56.5984 281.9777  1.00269705  4882"
      },
      "geometry": {
        "type": "Point",
        "coordinates": [
          -12.02471597123749,
          0.03310141673161319
        ]
      }
    },
    {
      "type": "Feature",
      "properties": {
        "norad_id": 44624,
        "name": "EUTELSAT 5 WEST B",
        "group": "eutelsat",
        "lat": 0.0123694201434938,
        "lon": -24.000045809215745,
        "alt_km": 35784.90759479216,
        "timestamp": "2025-12-04T17:48:39.844593+00:00",
        "meta_object_name": "EUTELSAT 5 WEST B",
        "meta_object_id": "2019-067A",
        "meta_epoch": "2025-12-04T05:08:27.051936",
        "meta_mean_motion": 1.00268945,
        "meta_eccentricity": 0.00034846,
        "meta_inclination": 0.0701,
        "meta_ra_of_asc_node": 329.9131,
        "meta_arg_of_pericenter": 283.6966,
        "meta_mean_anomaly": 251.8026,
        "meta_ephemeris_type": 0,
        "meta_classification_type": "U",
        "meta_norad_cat_id": 44624,
        "meta_element_set_no": 999,
        "meta_rev_at_epoch": 2248,
        "meta_bstar": 0,
        "meta_mean_motion_dot": -2.7e-07,
        "meta_mean_motion_ddot": 0,
        "tle_line1": "1 44624U 19067A   25338.21420199 -.00000027  00000+0  00000+0 0  9990",
        "tle_line2": "2 44624   0.0701 329.9131 0003484 283.6966 251.8026  1.00268945 22482"
      },
      "geometry": {
        "type": "Point",
        "coordinates": [
          -24.000045809215745,
          0.0123694201434938
        ]
      }
    },
    {
      "type": "Feature",
      "properties": {
        "norad_id": 45027,
        "name": "EUTELSAT KONNECT",
        "group": "eutelsat",
        "lat": -0.0523715136906049,
        "lon": -11.846789431740195,
        "alt_km": 35783.34409125648,
        "timestamp": "2025-12-04T17:48:39.844605+00:00",
        "meta_object_name": "EUTELSAT KONNECT",
        "meta_object_id": "2020-005B",
        "meta_epoch": "2025-12-04T05:11:56.717952",
        "meta_mean_motion": 1.00268809,
        "meta_eccentricity": 0.00018071,
        "meta_inclination": 0.0706,
        "meta_ra_of_asc_node": 98.8634,
        "meta_arg_of_pericenter": 187.1969,
        "meta_mean_anomaly": 232.4024,
        "meta_ephemeris_type": 0,
        "meta_classification_type": "U",
        "meta_norad_cat_id": 45027,
        "meta_element_set_no": 999,
        "meta_rev_at_epoch": 2237,
        "meta_bstar": 0,
        "meta_mean_motion_dot": 6.5e-07,
        "meta_mean_motion_ddot": 0,
        "tle_line1": "1 45027U 20005B   25338.21662868  .00000065  00000+0  00000+0 0  9994",
        "tle_line2": "2 45027   0.0706  98.8634 0001807 187.1969 232.4024  1.00268809 22373"
      },
      "geometry": {
        "type": "Point",
        "coordinates": [
          -11.846789431740195,
          -0.0523715136906049
        ]
      }
    },
    {
      "type": "Feature",
      "properties": {
        "norad_id": 49056,
        "name": "EUTELSAT QUANTUM",
        "group": "eutelsat",
        "lat": 0.018456366151426422,
        "lon": 28.70717912656761,
        "alt_km": 35794.498135890746,
        "timestamp": "2025-12-04T17:48:39.844616+00:00",
        "meta_object_name": "EUTELSAT QUANTUM",
        "meta_object_id": "2021-069B",
        "meta_epoch": "2025-12-04T03:40:50.445696",
        "meta_mean_motion": 1.00272043,
        "meta_eccentricity": 0.00038062,
        "meta_inclination": 0.02,
        "meta_ra_of_asc_node": 21.5671,
        "meta_arg_of_pericenter": 245.1984,
        "meta_mean_anomaly": 269.3877,
        "meta_ephemeris_type": 0,
        "meta_classification_type": "U",
        "meta_norad_cat_id": 49056,
        "meta_element_set_no": 999,
        "meta_rev_at_epoch": 1597,
        "meta_bstar": 0,
        "meta_mean_motion_dot": 1.42e-06,
        "meta_mean_motion_ddot": 0,
        "tle_line1": "1 49056U 21069B   25338.15336164  .00000142  00000+0  00000+0 0  9997",
        "tle_line2": "2 49056   0.0200  21.5671 0003806 245.1984 269.3877  1.00272043 15973"
      },
      "geometry": {
        "type": "Point",
        "coordinates": [
          28.70717912656761,
          0.018456366151426422
        ]
      }
    },
    {
      "type": "Feature",
      "properties": {
        "norad_id": 53765,
        "name": "EUTELSAT KONNECT VHTS",
        "group": "eutelsat",
        "lat": -0.03816424041842153,
        "lon": -16.320531285395123,
        "alt_km": 35791.07474857378,
        "timestamp": "2025-12-04T17:48:39.844628+00:00",
        "meta_object_name": "EUTELSAT KONNECT VHTS",
        "meta_object_id": "2022-110A",
        "meta_epoch": "2025-12-04T05:10:41.836800",
        "meta_mean_motion": 1.00268913,
        "meta_eccentricity": 0.00027455,
        "meta_inclination": 0.0593,
        "meta_ra_of_asc_node": 108.9289,
        "meta_arg_of_pericenter": 123.2902,
        "meta_mean_anomaly": 281.4458,
        "meta_ephemeris_type": 0,
        "meta_classification_type": "U",
        "meta_norad_cat_id": 53765,
        "meta_element_set_no": 999,
        "meta_rev_at_epoch": 487,
        "meta_bstar": 0,
        "meta_mean_motion_dot": 3.3e-07,
        "meta_mean_motion_ddot": 0,
        "tle_line1": "1 53765U 22110A   25338.21576200  .00000033  00000+0  00000+0 0  9990",
        "tle_line2": "2 53765   0.0593 108.9289 0002745 123.2902 281.4458  1.00268913  4870"
      },
      "geometry": {
        "type": "Point",
        "coordinates": [
          -16.320531285395123,
          -0.03816424041842153
        ]
      }
    },
    {
      "type": "Feature",
      "properties": {
        "norad_id": 54048,
        "name": "EUTELSAT HOTBIRD 13F",
        "group": "eutelsat",
        "lat": 0.05923083721805289,
        "lon": -6.0442530715196865,
        "alt_km": 35777.45703641075,
        "timestamp": "2025-12-04T17:48:39.844639+00:00",
        "meta_object_name": "EUTELSAT HOTBIRD 13F",
        "meta_object_id": "2022-134A",
        "meta_epoch": "2025-12-04T05:13:41.549664",
        "meta_mean_motion": 1.00270634,
        "meta_eccentricity": 0.00021197,
        "meta_inclination": 0.0518,
        "meta_ra_of_asc_node": 291.4552,
        "meta_arg_of_pericenter": 62.4336,
        "meta_mean_anomaly": 170.8297,
        "meta_ephemeris_type": 0,
        "meta_classification_type": "U",
        "meta_norad_cat_id": 54048,
        "meta_element_set_no": 999,
        "meta_rev_at_epoch": 1142,
        "meta_bstar": 0,
        "meta_mean_motion_dot": 1.03e-06,
        "meta_mean_motion_ddot": 0,
        "tle_line1": "1 54048U 22134A   25338.21784201  .00000103  00000+0  00000+0 0  9991",
        "tle_line2": "2 54048   0.0518 291.4552 0002119  62.4336 170.8297  1.00270634 11427"
      },
      "geometry": {
        "type": "Point",
        "coordinates": [
          -6.0442530715196865,
          0.05923083721805289
        ]
      }
    },
    {
      "type": "Feature",
      "properties": {
        "norad_id": 54225,
        "name": "EUTELSAT HOTBIRD 13G",
        "group": "eutelsat",
        "lat": 0.04864537400504432,
        "lon": -6.0393744071796185,
        "alt_km": 35795.01737796125,
        "timestamp": "2025-12-04T17:48:39.844651+00:00",
        "meta_object_name": "EUTELSAT HOTBIRD 13G",
        "meta_object_id": "2022-146A",
        "meta_epoch": "2025-12-04T01:48:08.883648",
        "meta_mean_motion": 1.00271083,
        "meta_eccentricity": 0.0002144,
        "meta_inclination": 0.0481,
        "meta_ra_of_asc_node": 238.3515,
        "meta_arg_of_pericenter": 307.4733,
        "meta_mean_anomaly": 287.3658,
        "meta_ephemeris_type": 0,
        "meta_classification_type": "U",
        "meta_norad_cat_id": 54225,
        "meta_element_set_no": 999,
        "meta_rev_at_epoch": 551,
        "meta_bstar": 0,
        "meta_mean_motion_dot": 1.04e-06,
        "meta_mean_motion_ddot": 0,
        "tle_line1": "1 54225U 22146A   25338.07510282  .00000104  00000+0  00000+0 0  9992",
        "tle_line2": "2 54225   0.0481 238.3515 0002144 307.4733 287.3658  1.00271083  5510"
      },
      "geometry": {
        "type": "Point",
        "coordinates": [
          -6.0393744071796185,
          0.04864537400504432
        ]
      }
    }
  ]
}